{"10":{"Hospital":"A.J. Hospital & Research Centre","State":"Karnataka","City":"Mangalore","LocalAddress":"Kuntikan, Mangalore, Dakshina Kannada-575004, Opp. Ksrtc Depot.Kuntikana","Pincode":575004},"12":{"Hospital":"A.M. Hospital","State":"Karnataka","City":"Bangalore","LocalAddress":"# 20/1, 2Nd Cross, Widia Layout, Vijayanagar, Bangalore","Pincode":560040},"24":{"Hospital":"Aadhar Hospital","State":"Karnataka","City":"Belgaum","LocalAddress":"Court Road,Chavatgalli","Pincode":590002},"25":{"Hospital":"Aadithya Adhikari Hospital","State":"Karnataka","City":"Mysore","LocalAddress":"#417, Contour Road,3Rd Stage Gokulaum, Mysore-570002","Pincode":570002},"63":{"Hospital":"Abhaya Eye Hospital","State":"Karnataka","City":"Bangalore","LocalAddress":"#77,Bsk 3Rd Stage, 100Ft Ring Road,5Th Block.","Pincode":560085},"64":{"Hospital":"Abhaya Hospital","State":"Karnataka","City":"Belthangady","LocalAddress":"1-78D, Jainpeta, Belthangaby, Dakshina Kannada, Karnataka","Pincode":574214},"65":{"Hospital":"Abhaya Hospital (Neuropsychiatry & Critical Care Hospital Pvt Ltd)","State":"Karnataka","City":"Bangalore","LocalAddress":"17, Dr.M.H.Mari Gowda Road,Wilson Garden,Bangalore","Pincode":560027},"70":{"Hospital":"Abhilash Hospital & Sara Rehabilitation Centre","State":"Karnataka","City":"Bangalore","LocalAddress":"#271, 1Ooft Ring Road, 5Th Block,3Rd Phase, 3Rd Stage,Banashankri.","Pincode":560085},"76":{"Hospital":"Abhishek Nethradhama","State":"Karnataka","City":"Bangalore","LocalAddress":"Mosque Complex, Opp Rajkamar Talkies, Fort Road,","Pincode":561203},"84":{"Hospital":"Acharya Tulsi Jain Hospital","State":"Karnataka","City":"Bangalore","LocalAddress":"Mom(M)W6-P-6,#22/2-1,6Th Cross,K.N Extension","Pincode":560022},"86":{"Hospital":"Achyut Pandit Hospital","State":"Karnataka","City":"Karwar","LocalAddress":"Kumbeswar Temple Road,Kumta","Pincode":581343},"88":{"Hospital":"Acura Health Care Pvt Ltd","State":"Karnataka","City":"Bangalore","LocalAddress":"#435,18Th Main,Koramangala 6Th Block(Near Ndoor Stadium)","Pincode":560095},"93":{"Hospital":"Adarsh Nursing Home","State":"Karnataka","City":"Bellary","LocalAddress":"Gopalswamy Road,Gandhinagar","Pincode":583103},"94":{"Hospital":"Adarsha Hospital","State":"Karnataka","City":"Kundapur","LocalAddress":"# 274/Vi, N.H. # 17, Kundapura, Udapi-576201Udupi- 576201","Pincode":576201},"95":{"Hospital":"Adarsha Hospital Udupi","State":"Karnataka","City":"Udupi","LocalAddress":"Near K.S.R.T.C Bus Stand, Udupi","Pincode":576101},"97":{"Hospital":"Adarsha Nursing Home","State":"Karnataka","City":"Tumkur","LocalAddress":"Sharadadevi Nagaropp Mg Stadium","Pincode":572103},"101":{"Hospital":"Adichunchanagiri Hospital & Research","State":"Karnataka","City":"Mandya","LocalAddress":"Balagangadharanatha Nagara, Nagamangala Taluk, Mandya Dist, Mandya-571448Nagamangala Taluk, Mandya Dist","Pincode":571448},"104":{"Hospital":"Adithi Maternity And General Nursing Home","State":"Karnataka","City":"Bangalore","LocalAddress":"#78,Omkarnagar, B.G. Road.","Pincode":560076},"105":{"Hospital":"Adithya Nursing Home","State":"Karnataka","City":"Ramanagaram","LocalAddress":"57 Opp Junior College Ramanagaram","Pincode":571511},"107":{"Hospital":"Aditi Hosptial","State":"Karnataka","City":"Bangalore","LocalAddress":"Gandhi Square Newpet,Anekal","Pincode":562106},"121":{"Hospital":"Aditya Netralaya","State":"Karnataka","City":"Bangalore","LocalAddress":"#244, 7Th Cross 6 Block 3 Puase 3Block Banashankari, Bangalore-560085","Pincode":560085},"124":{"Hospital":"Aditya Orthopaedic & Trauma Centre","State":"Karnataka","City":"Tumkur","LocalAddress":"Sri Shivakumar Swamy Circle, Bh Raod Tumkur-2","Pincode":572102},"133":{"Hospital":"Aeinullah Eye Hospital","State":"Karnataka","City":"Bangalore","LocalAddress":"#90, Austin Town Layout, Near B.D.A Shopping Complex.","Pincode":560047},"134":{"Hospital":"Agadi Hospital & Research Centre","State":"Karnataka","City":"Bangalore","LocalAddress":"35, H Siddhaiah Road, Wilson Garden, Bangalore-560027Wilson Garden","Pincode":560017},"164":{"Hospital":"Ajay Medical Centre","State":"Karnataka","City":"Chellakere","LocalAddress":"Near Bus Stand Chellakere","Pincode":577522},"166":{"Hospital":"Ajit Surgical & Maternity Home","State":"Karnataka","City":"Belgaum","LocalAddress":"Chikkodi Road,Raibag","Pincode":591317},"178":{"Hospital":"Akshare Eye Foundation","State":"Karnataka","City":"Tumkur","LocalAddress":"#6052 Railway Station Road,Opp Town Hall","Pincode":572102},"181":{"Hospital":"Akshay Hospital","State":"Karnataka","City":"Tumkur","LocalAddress":"2Nd Cross, Ashoknagar","Pincode":572102},"182":{"Hospital":"Akshay Mallya Hospital","State":"Karnataka","City":"Bangalore","LocalAddress":"Varthur Main Road,Marathalli","Pincode":560037},"186":{"Hospital":"Akshaya Nethralaya","State":"Karnataka","City":"Bangalore","LocalAddress":"#227/A,Vidyagiri Layout N Exit O Axis Bank Nagarbhavi Circle,Bangalore","Pincode":560072},"187":{"Hospital":"Akshaya Nursing Home","State":"Karnataka","City":"Kolar","LocalAddress":"3Dr Cross Gowripet, Kolar","Pincode":563101},"239":{"Hospital":"Amma Hospital","State":"Karnataka","City":"Anekal","LocalAddress":"32/515,Near Sri Rama Temple","Pincode":562106},"245":{"Hospital":"Amrik Nethralaya","State":"Karnataka","City":"Bangalore","LocalAddress":"#346, Hrbr 1St Kalyan Nagar,4Th Cross, 7Th B Main.","Pincode":560043},"250":{"Hospital":"Amruth Hospital","State":"Karnataka","City":"Davangere","LocalAddress":"#1643, Opp:K.E.B.Office, Vidyarthi Bhavan, Davangere","Pincode":577003},"252":{"Hospital":"Amrutha Hospital","State":"Karnataka","City":"Bangalore","LocalAddress":"# 1 Near Water Tank Jakkur Main Road Amruthahalli Bangalore 560092","Pincode":560092},"294":{"Hospital":"Ananya Hospital Pvt Ltd","State":"Karnataka","City":"Bangalore","LocalAddress":"389/44, 19Th Main,Rajajinagarrajajinagar","Pincode":560010},"316":{"Hospital":"Annadaneshwara Hospital","State":"Karnataka","City":"Raichur","LocalAddress":"Hahe Road, Sindhanur","Pincode":584128},"323":{"Hospital":"Annapoorna Orthopaedic & Speciality Hospital","State":"Karnataka","City":"Mysore","LocalAddress":"#953, Kantaraj Urs Road, Lakshmipuram, Mysore-570004","Pincode":570004},"324":{"Hospital":"Annapurna Hospital","State":"Karnataka","City":"Chickmangalur","LocalAddress":"K.M. Road, Chikmagalur","Pincode":577101},"327":{"Hospital":"Annapurna Multi Speciality Hospital","State":"Karnataka","City":"Gangavathi","LocalAddress":"Sri Krishnadevaraya Marga-Gangavathi, Koppal Dist, Karnataka-583227, Near Bus Stand","Pincode":583227},"335":{"Hospital":"Anugraha Hospital","State":"Karnataka","City":"Bangalore","LocalAddress":"No 18/2,1St Cross,M.C. Layout,Vijayanagar","Pincode":560079},"336":{"Hospital":"Anugraha Hospital","State":"Karnataka","City":"Davangere","LocalAddress":"# 2698,2Nd Main,2Nd Cross,M.C. B Block","Pincode":577004},"337":{"Hospital":"Anugraha Nursing Home","State":"Karnataka","City":"Bangalore","LocalAddress":"No 2,Vinayaka Circle, Palace Guttahalli Main Road, Bangalore-560003Circle Palace Guttahalli Main","Pincode":560003},"338":{"Hospital":"Anugrahaa Hospital","State":"Karnataka","City":"Bangalore","LocalAddress":"55/3A, Govindana Setty Palya Road Konappana Agrahara Electronic City Infosysbangalore South Taluk","Pincode":560100},"346":{"Hospital":"Anuradha Nursing Home","State":"Karnataka","City":"Shimoga","LocalAddress":"1St Cross, Raghavendra Extension, Thirthahalli.","Pincode":577432},"356":{"Hospital":"Apex Hospital","State":"Karnataka","City":"Bidar","LocalAddress":"Opp Ganesh Maidan, Bidar, Karnataka","Pincode":585407},"371":{"Hospital":"Apollo B.G.S Hospitals","State":"Karnataka","City":"Mysore","LocalAddress":"Adichunchanagiri Roadkuvempunagar Road","Pincode":570023},"386":{"Hospital":"Apollo Hospitals","State":"Karnataka","City":"Bangalore","LocalAddress":"No.154/11,Opp To Iimb,Bannerghatta Road,","Pincode":560076},"392":{"Hospital":"Apollo Koramangala Cradle Limited","State":"Karnataka","City":"Bangalore","LocalAddress":"#25. 46Th Cross, 5Th Block, Jayanagar, Bangalore, Karnataka","Pincode":560011},"393":{"Hospital":"Apollo Koramangla Cradle Limited","State":"Karnataka","City":"Bangalore","LocalAddress":"No.58, 5Th Cross, 18Th Main Koramangla, 6Th Block, Bangalore, Karnataka.","Pincode":560095},"401":{"Hospital":"Apoorva Hospital","State":"Karnataka","City":"Davangere","LocalAddress":"3Rd Main Road, 9Th Cross, J.P. Extention.","Pincode":577002},"402":{"Hospital":"Apoorva Multispeiality Hospital","State":"Karnataka","City":"Belgaum","LocalAddress":"Shreem 4889/90, Off Dr S P M Road, Near Prakash Theatre, Shastrinagar, Belgum- 590002","Pincode":590002},"405":{"Hospital":"Apple Hospital","State":"Karnataka","City":"Bangalore","LocalAddress":"#32 Maruthi Complex M S Nagar Bus Stop Banaswadi Main Road Bangalore","Pincode":560033},"422":{"Hospital":"Aravinda Hospital","State":"Karnataka","City":"Mysore","LocalAddress":"#644,4Th Main, Aravinda Nagar,","Pincode":570023},"426":{"Hospital":"Archana Hospital","State":"Karnataka","City":"Mandya","LocalAddress":"K.R. Road, Ashok Nagar, Mandya-571401Mandya","Pincode":571401},"456":{"Hospital":"Aruna Hospital","State":"Karnataka","City":"Tumkur","LocalAddress":"Dr.Radhakrishan Road, Tumkur","Pincode":572102},"461":{"Hospital":"Arunodaya Hospitals","State":"Karnataka","City":"Bangalore","LocalAddress":"# 18-23,4Th And 5Th Cross Mallasandra Main Road","Pincode":560057},"468":{"Hospital":"Arya Medical Centre","State":"Karnataka","City":"Ankola","LocalAddress":"Dinkar Desai Road.","Pincode":581314},"480":{"Hospital":"Ashirvad Hospital","State":"Karnataka","City":"Chickmangalur","LocalAddress":"Rathnagiri Road,","Pincode":577101},"497":{"Hospital":"Ashok Hospital","State":"Karnataka","City":"Bangalore","LocalAddress":"#65,N.H.C.S. Lay-Out, 3Rd Stage, 4Th Block, Basaveshwar Nagar, Kamalanagar Main Road.","Pincode":560079},"501":{"Hospital":"Ashraya Hospital","State":"Karnataka","City":"Bangalore","LocalAddress":"#26, Jetiappa Complex,Yelachenahalli, Kanakapura Rd","Pincode":560078},"502":{"Hospital":"Ashraya Hospital","State":"Karnataka","City":"Chickmangalur","LocalAddress":"P B No 77 Naidu Streetchikmagalur","Pincode":577101},"503":{"Hospital":"Ashraya Hospital","State":"Karnataka","City":"Davangere","LocalAddress":"No.1977/1 & 2,Mcc 'A' Block,Shamanur Road,Davanagere","Pincode":577004},"504":{"Hospital":"Ashraya Medinova Pvt Ltd","State":"Karnataka","City":"Bangalore","LocalAddress":"Magadi Main Road,Sunkadakatte,Srigandadakaval,","Pincode":560091},"514":{"Hospital":"Ashwini Hospital","State":"Karnataka","City":"Bangalore","LocalAddress":"#129, Katruguppa, Bsk 3Rd Stg,","Pincode":560085},"515":{"Hospital":"Ashwini Hospital","State":"Karnataka","City":"Bangalore","LocalAddress":"B.B.Road, Yelahanka,Bangalore-560064","Pincode":560064},"516":{"Hospital":"Ashwini Hospital","State":"Karnataka","City":"Dakshinakannada","LocalAddress":"Nh-48, Nellyady,Dakshina Kannadadakshina Kannada","Pincode":574229},"523":{"Hospital":"Ashwini Nursing Home","State":"Karnataka","City":"Bangalore","LocalAddress":"#9, 1St A Cross. T.C. Palya Main Road, Akshyanagar, Ramamurthy Nagar.","Pincode":560016},"524":{"Hospital":"Ashwini Nursing Home","State":"Karnataka","City":"Bangalore","LocalAddress":"#382,Narayanappa Buildingd Ramamurthynagar","Pincode":560016},"525":{"Hospital":"Ashwini Nursing Home","State":"Karnataka","City":"Davangere","LocalAddress":"Akka Mahadevi Road,A.V.K.College Road,P.J.Extension,Near Bapuji Corporation Bank,","Pincode":577002},"533":{"Hospital":"Asian Specialty Hospital (A Unit Of Orch Hospital And Healthcare Services Llp)","State":"Karnataka","City":"Hsr Layout","LocalAddress":"# 11/A, 9Th Main, 13Th Cross, 6Th Sector Hsr Layout, Outer Ring Road, Bangalore-560102Hsr Layout","Pincode":560102},"547":{"Hospital":"Athena Hospital","State":"Karnataka","City":"Mangalore","LocalAddress":"Falnir Road, Mangalore-575001, Opp Ymca, Near Platinum Theatre","Pincode":575001},"549":{"Hospital":"Athreya Hospital","State":"Karnataka","City":"Virajpet","LocalAddress":"Gonikoppal Road Opp, Kstrc Bus Stands.Kodagu","Pincode":571218},"564":{"Hospital":"Avadhani Nethralaya","State":"Karnataka","City":"Bangalore","LocalAddress":"No.33,1St Floor,Patalamma Temple Street,Basavanagudi,","Pincode":560004},"569":{"Hospital":"Avhieta Hospital & Health Care","State":"Karnataka","City":"Bangalore","LocalAddress":"280/1 Byrathi Cross, Hennur Bagalur Main Road, Bangalore-560077","Pincode":560077},"570":{"Hospital":"Avinash Shah Memorial Multispeciality Hospital","State":"Karnataka","City":"Gulbarga","LocalAddress":"184-20/08/2007,Jayanagar,Sedam Road","Pincode":585105},"591":{"Hospital":"B.A Hospital & Training Centre","State":"Karnataka","City":"Bantwal","LocalAddress":"Thumbay,Bantwal","Pincode":574170},"594":{"Hospital":"B.G. Hospital","State":"Karnataka","City":"Bangalore","LocalAddress":"Mayamma Thimmappa Complex, Tumkur Road, Anchepalya.","Pincode":560073},"595":{"Hospital":"B.G.S Vivus Heart Centre","State":"Karnataka","City":"Mandya","LocalAddress":"Bandhi Gowda Extension,Bangalore Mysore Highway,","Pincode":571401},"596":{"Hospital":"B.J. Lingegowda Hospital","State":"Karnataka","City":"Chanapatna","LocalAddress":"Bangalore-Mysore Road","Pincode":571501},"612":{"Hospital":"B.Siddaramanna Hospital","State":"Karnataka","City":"Tumkur","LocalAddress":"Opp Ib Railway Station Road,Gandhinagar","Pincode":572102},"617":{"Hospital":"Bacc Health Care Private Limited","State":"Karnataka","City":"Bangalore","LocalAddress":"No 6/7, Kumara Krupa Road,High Grounds,","Pincode":560001},"623":{"Hospital":"Bahusar Nursing Home","State":"Karnataka","City":"Mysore","LocalAddress":"#3587,B.M. Road,Hunsur.","Pincode":577105},"636":{"Hospital":"Balaji Hospital","State":"Karnataka","City":"Bangalore","LocalAddress":"40/1, J.J.R. Nagar Main Road,K.H. Ranganath Colony.","Pincode":560018},"637":{"Hospital":"Balaji Hospital","State":"Karnataka","City":"Tumkur","LocalAddress":"B.H. Road, Tiptur.Near Aralikatte","Pincode":572201},"645":{"Hospital":"Balaji Nursing Home","State":"Karnataka","City":"Bangalore","LocalAddress":"Dommasandra Bus Stop,","Pincode":562125},"646":{"Hospital":"Balaji Nursing Home","State":"Karnataka","City":"Chickmangalur","LocalAddress":"T.B. Road,Kadur.","Pincode":577548},"650":{"Hospital":"Balanku Hospital","State":"Karnataka","City":"Raichur","LocalAddress":"Near Basavana Bhavi Chowk, Basavanagara, Raichur-584102","Pincode":584102},"655":{"Hospital":"Banashankari Hospital Pvt Ltd","State":"Karnataka","City":"Hubli","LocalAddress":"Chitguppipark, Pinto Road,Hubli Dharkiad","Pincode":580020},"656":{"Hospital":"Bangalore Baptist Hospital","State":"Karnataka","City":"Bangalore","LocalAddress":"Bellary Road, Hebbal, Bangalore-560024, Opp University Of Agricultural Sciences (Near Hebbal Flyower)","Pincode":560024},"657":{"Hospital":"Bangalore Eye Hospital & Retina Centre","State":"Karnataka","City":"Bangalore","LocalAddress":"4C,426 4Th Cross, 2Nd Block,Kalyannagar.","Pincode":560043},"658":{"Hospital":"Bangalore Nethralaya Super Speciality Eye Hospital","State":"Karnataka","City":"Bangalore","LocalAddress":"#946,21St Main, Near Bda Complex,Banashankari ,2Nd Stage","Pincode":560070},"671":{"Hospital":"Bapuji Nursing Home","State":"Karnataka","City":"Tumkur","LocalAddress":"1St Cross, Someshwar Puram,Tumkur-572102.","Pincode":572102},"682":{"Hospital":"Basappa Memorial Hospital","State":"Karnataka","City":"Mysore","LocalAddress":"22-B, Vinobha Road, Mysore-570012","Pincode":570012},"683":{"Hospital":"Basappa Multispeciality Hospital","State":"Karnataka","City":"Chitradurga","LocalAddress":"Basapa Hospital Building,Turuvanur Road,","Pincode":577501},"684":{"Hospital":"Basavanagudi E.N.T. Care Centre","State":"Karnataka","City":"Bangalore","LocalAddress":"44/1, H.B. Samaja Road, Basavanagudi","Pincode":560004},"685":{"Hospital":"Basavangudi Medical Centre","State":"Karnataka","City":"Bangalore","LocalAddress":"84/1, R.V. Road, Basavanagudi,Bangalore-560004.","Pincode":560004},"698":{"Hospital":"Beams Hospitals Privated Limited","State":"Karnataka","City":"Bangalore","LocalAddress":"640, 12Th Main, 80 Ft Road, 4Th Block, Koramangala, Bengaluru-560034","Pincode":560034},"705":{"Hospital":"Belaku Eye Hospitals Pvt Ltd","State":"Karnataka","City":"Kengeri Upanagara","LocalAddress":"#769, 1St Cross, Ring Road, Kengeri Upanagar, Bangalore-560060Kengeri Upanagara","Pincode":560060},"706":{"Hospital":"Belgaum Cancer Hospital Pvt Ltd","State":"Karnataka","City":"Belgaum","LocalAddress":"#9666A-2/D,Ashok Nagar, Belgaum-590010","Pincode":590010},"707":{"Hospital":"Belgaum Children'S Hospital Pvt Ltd","State":"Karnataka","City":"Belgaum","LocalAddress":"1St Floor,Samsukha Complex,Khade Bazar","Pincode":590001},"709":{"Hospital":"Belle Vue'S Cambridge Hospital","State":"Karnataka","City":"Bangalore","LocalAddress":"18/17, Cambridge Road, Ulsoor, Bangalore-560008","Pincode":560008},"713":{"Hospital":"Benaka Health Centre","State":"Karnataka","City":"Ujjire","LocalAddress":"Lhh Road,Near Jyothi Takies,Mangalore-575003","Pincode":574240},"724":{"Hospital":"Bgs Global Hospital","State":"Karnataka","City":"Bangalore","LocalAddress":"#67,Uttarahalli Road,Kengeri","Pincode":560060},"725":{"Hospital":"Bhadra Nursing Home","State":"Karnataka","City":"Bhadravathi","LocalAddress":"Gandhinagar","Pincode":577301},"729":{"Hospital":"Bhagavathi Multi Speciality Hospital","State":"Karnataka","City":"Hsr Layout","LocalAddress":"L-168, 6Th Sector, Hsr Layout, Bangalore-560102","Pincode":560102},"733":{"Hospital":"Bhagwan Mahaveer Darshan Eye Hospital","State":"Karnataka","City":"Mysore","LocalAddress":"Opp. K.R. Mills, Mysore Bangalore Road, Siddalingapura, Mysore-570003","Pincode":570003},"735":{"Hospital":"Bhagwan Mahaveer Jain Heart Centre( A Unit Of Srinivasa Cardiology Centre Pvt Ltd)","State":"Karnataka","City":"Bangalore","LocalAddress":"#8,Millers Tank Bund Road Near Cantonment Railway Station","Pincode":560052},"736":{"Hospital":"Bhagwan Mahaveer Jain Hospital","State":"Karnataka","City":"Bangalore","LocalAddress":"No.17, Millers Road, Vasanthnagar, Bangalore-560052","Pincode":560052},"737":{"Hospital":"Bhagwan Mahaveer Jain Netralaya","State":"Karnataka","City":"Bangalore","LocalAddress":"#3, Railway Platform Road,Sheshadripuram, Policestation Opp. Roadsheshadripuram","Pincode":560020},"739":{"Hospital":"Bhagwat Maternity And Nursing Home","State":"Karnataka","City":"Shimoga","LocalAddress":"Court Road,Sagar","Pincode":577401},"754":{"Hospital":"Bhanu Nursing Home","State":"Karnataka","City":"Bangalore","LocalAddress":"69/5B, Bommanahalli, Hosur Rd,Bangalore","Pincode":560068},"761":{"Hospital":"Bharath Hospital & Institute Of Oncolgy","State":"Karnataka","City":"Mysore","LocalAddress":"# 438, Outer Ring Road, Hebbal.","Pincode":570017},"762":{"Hospital":"Bharath Nursing Home","State":"Karnataka","City":"Bangalore","LocalAddress":"# 1402, Near Vegitable Market, J.P Nagr 1St Phase, Bangalore-560078Kanakapura Main Road.","Pincode":560078},"766":{"Hospital":"Bharathi Hospital","State":"Karnataka","City":"Channarayapatna","LocalAddress":"Dr.Bharathi Ravindranath Bajab Soaw Room","Pincode":573116},"767":{"Hospital":"Bharathi Hospital","State":"Karnataka","City":"Tumkur","LocalAddress":"4Th Cross,Barkline Road, K.R. Extension, 4Th Cross, Tumkur-572101","Pincode":572101},"769":{"Hospital":"Bharathy Hospital","State":"Karnataka","City":"Bangalore","LocalAddress":"#4,Nagarabhavi Main Road,Prashanth Nagar","Pincode":560079},"783":{"Hospital":"Bhate Hospital And Maternity Home Chikodi","State":"Karnataka","City":"Belgaum","LocalAddress":"#1243, Basaveshwar Circle, Chikodi, Belgaum-591201","Pincode":591201},"789":{"Hospital":"Bhavana Nursing Home","State":"Karnataka","City":"Anekal","LocalAddress":"Mysore Bank Road","Pincode":562106},"801":{"Hospital":"Bibi Ayesha Mili Hospital","State":"Karnataka","City":"Bangalore","LocalAddress":"242, Old Mysore-Bangalore Rd,Mysore","Pincode":570015},"804":{"Hospital":"Bilagi Hospital & Research Centre","State":"Karnataka","City":"Hubli","LocalAddress":"Opp Nehru Stedium Main Gate","Pincode":580020},"807":{"Hospital":"Bilva Hospital","State":"Karnataka","City":"Guttahalli","LocalAddress":"No. 21, 22, 2Nd Main Palace Guttahalli, Bangalore-560003, Near Vinayaka Circle","Pincode":560003},"837":{"Hospital":"Brahma Nursing Home","State":"Karnataka","City":"Karwar","LocalAddress":"Nadangadda, Karwar.","Pincode":581304},"846":{"Hospital":"Brookefield Hospital (A Unit Of Sanjeevini Healthcare)","State":"Karnataka","City":"Kundalahalli","LocalAddress":"#521, 522, Vijaylakshmi Square, Itpl Main Road, Kundalahalli, Bangalore-560037Kundalahalli","Pincode":560037},"860":{"Hospital":"C.S.I. Hospital","State":"Karnataka","City":"Chikkaballapur","LocalAddress":"C.S.I. Hospital Road,Kolar.","Pincode":562101},"862":{"Hospital":"C.S.I. Lombard Memorial Hospital","State":"Karnataka","City":"Udupi","LocalAddress":"Mission Hospital Road","Pincode":576101},"864":{"Hospital":"C.S.I. Redfern Memorial Hospital","State":"Karnataka","City":"Hassan","LocalAddress":"Race Course Road, P.O Box No.127.","Pincode":573201},"869":{"Hospital":"Canara Health Care Limited","State":"Karnataka","City":"Kumta","LocalAddress":"Baggon Road,","Pincode":581343},"881":{"Hospital":"Cauvery Hospital","State":"Karnataka","City":"Mysore","LocalAddress":"# 756, New Kantharaje Urs Roadsaraswathipuram Mysore","Pincode":570009},"882":{"Hospital":"Cauvery Hospital","State":"Karnataka","City":"Mysore","LocalAddress":"Terission College Road,Bannur Road,Shidharthnagar","Pincode":570011},"883":{"Hospital":"Cauvery Orthopaedic Centre","State":"Karnataka","City":"Bangalore","LocalAddress":"#408,20Th Main,W.O.C.Road,1St Block,Rajajinagar","Pincode":560010},"886":{"Hospital":"Cdr Medical Centre","State":"Karnataka","City":"Bangalore","LocalAddress":"Jayanagar, B'Lore","Pincode":560011},"919":{"Hospital":"Chaitanya Hospital","State":"Karnataka","City":"Bangalore","LocalAddress":"No. 80, 3Rd Cross,P & T Colony,R.T.Nagarr.T. Nagar,Bangalore-560036.","Pincode":560032},"923":{"Hospital":"Chaitanya Medical Centre","State":"Karnataka","City":"Bangalore","LocalAddress":"# 771/24, Khb , Asector, Yelahanka, Bangalore, Karnataka","Pincode":560064},"928":{"Hospital":"Chaitra Hospital","State":"Karnataka","City":"Mysore","LocalAddress":"# 16/84, 15Th Cross, Basaweshwara Blockk.R. Nagar, Basavaswara Block,","Pincode":571602},"938":{"Hospital":"Chandana Hospital","State":"Karnataka","City":"Bangalore","LocalAddress":"#54, 4Th Cross, 4Th Main, Ngefnrupathunganagar, Nagarbhavi,","Pincode":560072},"939":{"Hospital":"Chandini Hospital","State":"Karnataka","City":"Shimoga","LocalAddress":"Chamarajpet,Sagarshivamogga","Pincode":577401},"948":{"Hospital":"Chandrakala Hospital And Institute Of Medical Research","State":"Karnataka","City":"Mysore","LocalAddress":"Plot A,Kalidasa Road,Jayalakshmipuram","Pincode":570012},"957":{"Hospital":"Chanre Rheumatology & Immunology Centre & Research (A Unit Of Chanre Darsha Health Care Pvt Ltd)","State":"Karnataka","City":"Bangalore","LocalAddress":"#149,15Th Main,3D Stage,4Th Block,Nhc Layout,Basaveshwar Nagar,","Pincode":560079},"963":{"Hospital":"Charaka Hospital","State":"Karnataka","City":"Tumkur","LocalAddress":"No-5, Opp-Neps, 2Nd Main, Shankarapuram, B.H Road, Tumkur-572102","Pincode":572102},"971":{"Hospital":"Chaya Hospital ( A Unit Of Chaya Healthcare Pvt Ltd)","State":"Karnataka","City":"Bangalore","LocalAddress":"# 6C-335, 4Th Main, 6Th Cross, Ombr Layout, Bhuvanagiri.","Pincode":560043},"978":{"Hospital":"Chetana Hospital","State":"Karnataka","City":"Kadur","LocalAddress":"M.T. Road Puttur","Pincode":577548},"979":{"Hospital":"Chethana Hospital","State":"Karnataka","City":"Puttur","LocalAddress":"Shree Mahamaya Temple Road Dakshina Kannada","Pincode":574201},"987":{"Hospital":"Chincholi Eye Hospital","State":"Karnataka","City":"Gulbarga","LocalAddress":"Old Jewargi Cross Road","Pincode":585102},"989":{"Hospital":"Chinmaya Mission Hospital","State":"Karnataka","City":"Bangalore","LocalAddress":"1/1,C M H Road,Indiranagar","Pincode":560038},"990":{"Hospital":"Chinmaya Narayana Hrudayalaya","State":"Karnataka","City":"Bangalore","LocalAddress":"Cmh Road Indiranagar 2Nd Stage Chinmaya Missin Hospital","Pincode":560038},"991":{"Hospital":"Chinmayi Hospital","State":"Karnataka","City":"Bangalore","LocalAddress":"#34,Brindavan Layout,Subramanyapura Main Road","Pincode":560061},"992":{"Hospital":"Chinmayi Hospital","State":"Karnataka","City":"Kundapur","LocalAddress":"Church Road, Kundapura, Udupi-576201","Pincode":576201},"998":{"Hospital":"Chiranjeevi Hospital & Maternity Home","State":"Karnataka","City":"Bangalore","LocalAddress":"16Th 2Nd Main, Sri Manjunatha Temple St, Mysore Bank Colony,","Pincode":560050},"999":{"Hospital":"Chiranjeevi Maternity Hospital","State":"Karnataka","City":"Bijapur","LocalAddress":"Divatageri Galli Near Rayar Math","Pincode":586101},"1001":{"Hospital":"Chirashree Nursing Home","State":"Karnataka","City":"Mangalore","LocalAddress":"1-33/2 & 1-33/3, Iddya Suratkal","Pincode":575014},"1004":{"Hospital":"Chitra Hospital","State":"Karnataka","City":"Mysore","LocalAddress":"25/1A, Irwin Rdmysore","Pincode":570001},"1008":{"Hospital":"Chittaragi Hospital","State":"Karnataka","City":"Bagalkot","LocalAddress":"Bramanand Asram Road Bus Stand Road Rabkavi","Pincode":587314},"1012":{"Hospital":"Chord Road Hospital Pvt Ltd","State":"Karnataka","City":"Bangalore","LocalAddress":"100 Bima Jyoti Lic Colony2Nd Stage West Of Chord Road","Pincode":560079},"1013":{"Hospital":"Choudhari Hospital","State":"Karnataka","City":"Bijapur","LocalAddress":"Shikharakhana Road, Near Lic Office","Pincode":586104},"1015":{"Hospital":"Chougala Hospital","State":"Karnataka","City":"Belgaum","LocalAddress":"Shanti Nagar,Hallyal Road,Athani,","Pincode":591304},"1023":{"Hospital":"Citi Hospital","State":"Karnataka","City":"Bangalore","LocalAddress":"25/91,West Of Chord Road, 20Th Main, 2Nd Block, Rajajinagar, Bangalore","Pincode":560010},"1024":{"Hospital":"Citi Hospital","State":"Karnataka","City":"Bellary","LocalAddress":"No.52/A, Dam Road,Hospet, Bellary-583203","Pincode":583203},"1028":{"Hospital":"City Central Hospital Pvt Ltd","State":"Karnataka","City":"Davangere","LocalAddress":"# 17, Akkamahadevi Road,Near Chethana Hotel","Pincode":577002},"1029":{"Hospital":"City Clinic","State":"Karnataka","City":"Hubli","LocalAddress":"Madhavpur, Hubli","Pincode":580020},"1035":{"Hospital":"City Hospital","State":"Karnataka","City":"Shimoga","LocalAddress":"R.M.R. Road, Durgigudi,Shimoga-577201.","Pincode":577201},"1040":{"Hospital":"City Hospital & Diagnostic Centre","State":"Karnataka","City":"Udupi","LocalAddress":"Vidyaranya Mag,Behind Alankar Theatreudupi","Pincode":576101},"1046":{"Hospital":"City Hospital Research & Diagnostic Centre","State":"Karnataka","City":"Mangalore","LocalAddress":"Pound Garden,Kadri,Dakshina Kannada,","Pincode":575003},"1048":{"Hospital":"City Medical Centre","State":"Karnataka","City":"Davangere","LocalAddress":"Badila Guthu Complex1St Main, M.C.C.B Block","Pincode":577004},"1053":{"Hospital":"Cloudnine (A Venture Of Kids Clinic Pvt Ltd","State":"Karnataka","City":"Bangalore","LocalAddress":"#1533,9Th Main, Jayanagar 3Rd Block","Pincode":560011},"1054":{"Hospital":"Cloudnine (Kids Clinic India Pvt. Ltd.)","State":"Karnataka","City":"Bangalore","LocalAddress":"115, Kodi Halli, Old Airport Road, Bangalore-560017","Pincode":560017},"1061":{"Hospital":"Colaco Hospital","State":"Karnataka","City":"Mangalore","LocalAddress":"Lower Bendore Main Road,Dakshina Kannada,","Pincode":575002},"1063":{"Hospital":"Columbia Asia Hospital","State":"Karnataka","City":"Mysore","LocalAddress":"85-86,Bangalore Mysore Ring Road, Junction, Bannimantap A Layout, Siddiqui Nagar","Pincode":570015},"1065":{"Hospital":"Columbia Asia Hospital Pvt Ltd","State":"Karnataka","City":"Bangalore","LocalAddress":"Kirloskar Business Park, Bellary Road, Hebbal, Bangalore-560024","Pincode":560024},"1068":{"Hospital":"Columbia Asia Referral Hospital","State":"Karnataka","City":"Bangalore","LocalAddress":"#26/1, 80Feet Dr.Rajkumar Road,Malleshwaran West, Bangalore-560055","Pincode":560055},"1074":{"Hospital":"Cosmo Multispeciality Hospital","State":"Karnataka","City":"Bangalore","LocalAddress":"#64,1St Cross,Kalidasa Circle,Srinagar","Pincode":560050},"1084":{"Hospital":"Csi-Church Of South India Hospital","State":"Karnataka","City":"Bangalore","LocalAddress":"Post Beg No #4, Hazarat Kambal Posh Roadposh Road,","Pincode":560051},"1100":{"Hospital":"D.G. Hospital (Devambika Nursing Home)","State":"Karnataka","City":"Bangalore","LocalAddress":"274 / 275, Mkp Road, Padmanabhanagar, Puttalingaiah Road, Bangalore-560070","Pincode":560070},"1105":{"Hospital":"Daddenavar Hospital & Research Centre","State":"Karnataka","City":"Bagalkot","LocalAddress":"Ward # 10 & Rural Police Stationnear Rural Police Station","Pincode":587101},"1110":{"Hospital":"Dakshata Hospital Pvt Ltd","State":"Karnataka","City":"Belgaum","LocalAddress":"3375,Subalakshmi Building,College Road","Pincode":590001},"1111":{"Hospital":"Dange Hospital","State":"Karnataka","City":"Hassan","LocalAddress":"M.G. Road, Near Adichundhangiri School, Hassan-573201","Pincode":573201},"1120":{"Hospital":"Davangere Heart Hospital (Unit Of Suraj Hospital Pvt Ltd)","State":"Karnataka","City":"Davangere","LocalAddress":"3639,M.C.Colony 9Th Main","Pincode":577004},"1129":{"Hospital":"Deccan Hospital","State":"Karnataka","City":"Kolar","LocalAddress":"Opp Ksrtc Depot, Ashwini Extension, Chintamani, Chikballapura-563125","Pincode":563125},"1130":{"Hospital":"Deccan Medical Centre Pvt Ltd","State":"Karnataka","City":"Belgaum","LocalAddress":"Goods Shed Road, Near Railway Station","Pincode":590001},"1131":{"Hospital":"Deeksha Hospital","State":"Karnataka","City":"Bangalore","LocalAddress":"#387/347 Bb Road Nehrunagar Yelahanka Old Town Next To Post Office","Pincode":560064},"1142":{"Hospital":"Deepa Hospital","State":"Karnataka","City":"Bangalore","LocalAddress":"# 27,Old Madra Road K.R. Puram Ext Bangalore","Pincode":560036},"1145":{"Hospital":"Deepa Nursing Home","State":"Karnataka","City":"Chickmangalur","LocalAddress":"Chikmanglur, Karnataka","Pincode":577101},"1147":{"Hospital":"Deepak Hospital","State":"Karnataka","City":"Bangalore","LocalAddress":"259, 33Rd Cross, Kanakapura Main Road, 7Th Block, Jayanagar-560082","Pincode":560082},"1159":{"Hospital":"Deepashri Hospital (A Unit Of Cadms Trust)","State":"Karnataka","City":"Bangalore,","LocalAddress":"#86. 2Nd Main 16Th Cross Malagala Nagarabhavi 2Nd Stage Bangalore560072","Pincode":560072},"1193":{"Hospital":"Devi Super Speciality Eye Hospital Private Limited","State":"Karnataka","City":"Bangalore","LocalAddress":"#434, 18Th Main, 80 Feet Road, 6Th Block Bus Depot. Block,Koramangala. Bangalore-560095","Pincode":560095},"1204":{"Hospital":"Dhanush Hospital","State":"Karnataka","City":"Bagalkot","LocalAddress":"Mahaveer Road Bagalkot","Pincode":587313},"1205":{"Hospital":"Dhanush Hospital","State":"Karnataka","City":"Kolar","LocalAddress":"Behind Municipal Park,N.R.Extension,Chintamani,","Pincode":563125},"1206":{"Hospital":"Dhanush Hospital","State":"Karnataka","City":"Nagarbhavi","LocalAddress":"#63, Byraveshwara Nagar 2Nd Main, Nagarbhavi Main Raod, Bangalore-560072","Pincode":560072},"1230":{"Hospital":"Diagram Health Care","State":"Karnataka","City":"Bangalore","LocalAddress":"4, R.M.V.Extensionmekhri Circle","Pincode":560080},"1237":{"Hospital":"Divakars Global Hospitals","State":"Karnataka","City":"Bangalore","LocalAddress":"No.220, 9Th Cross, J.P.Nagar 2Nd Phase, Bangalore-560078","Pincode":560078},"1242":{"Hospital":"Divine Speciality Hospital","State":"Karnataka","City":"Bangalore","LocalAddress":"#110,6H Main,I.T.I Layout,Benson Town Post","Pincode":560046},"1246":{"Hospital":"Divyadrishti Eye Hosptial","State":"Karnataka","City":"Bangalore","LocalAddress":"996/22, Service Road,Rpc Layout, Bangalore","Pincode":560040},"1261":{"Hospital":"Dr Agarwal'S Healthcare Ltd.","State":"Karnataka","City":"Bangalore","LocalAddress":"Kade, Complex No 869, 2Nd Stage, Wcr 3Rd Stage, Basaveshwaranagar","Pincode":560079},"1276":{"Hospital":"Dr Handral Nursing Home","State":"Karnataka","City":"Ranbennur","LocalAddress":"No.14,Rajendra Nagar,","Pincode":581110},"1281":{"Hospital":"Dr Lodaya Hospital","State":"Karnataka","City":"Ranbennur","LocalAddress":"Ashwini Nagar,Just Behind Bus Stand,","Pincode":581110},"1283":{"Hospital":"Dr Mahadevappa Eye Laser Hospital","State":"Karnataka","City":"Tumkur","LocalAddress":"15Th Cross, S.S. Puram, (Horticulture Office Road) Tumkur-572102","Pincode":572102},"1288":{"Hospital":"Dr Ramesh Hospital For Piles & Proctology","State":"Karnataka","City":"Mysore","LocalAddress":"410 Contour Road Gokulam Mysore -570002","Pincode":570002},"1310":{"Hospital":"Dr. Bidari'S Ashwini Hospital","State":"Karnataka","City":"Bijapur","LocalAddress":"B.L.D.E. Road","Pincode":586103},"1320":{"Hospital":"Dr. Gokavi Maternity & General Hospital","State":"Karnataka","City":"Hubli","LocalAddress":"Karwar Road Hubli","Pincode":580029},"1344":{"Hospital":"Dr. Malathi Manipal Hospital","State":"Karnataka","City":"Bangalore","LocalAddress":"45/1, 45Th Cross, 9Th Block, Jayanagar, Bangalore-560069","Pincode":560069},"1346":{"Hospital":"Dr. Manohara Sai Gowda Memorial Hospital","State":"Karnataka","City":"Mulbagal","LocalAddress":"Nh-4, Opposite Inspection Bungalow, Mulbagal","Pincode":563131}}